{
  "type": "FeatureCollection",
  "features": [
    {
      "type": "Feature",
      "properties": {
        "norad_id": 34010,
        "name": "COSMOS 2251 DEB",
        "group": "cosmos-2251-debris",
        "lat": 50.15946251493141,
        "lon": -34.88966121455146,
        "alt_km": 510.1618601141081,
        "timestamp": "2025-12-02T08:59:33.108126+00:00",
        "meta_object_name": "COSMOS 2251 DEB",
        "meta_object_id": "1993-036GV",
        "meta_epoch": "2025-12-02T00:50:24.699840",
        "meta_mean_motion": 15.15871117,
        "meta_eccentricity": 0.0004472,
        "meta_inclination": 73.9999,
        "meta_ra_of_asc_node": 305.7039,
        "meta_arg_of_pericenter": 49.4096,
        "meta_mean_anomaly": 310.7487,
        "meta_ephemeris_type": 0,
        "meta_classification_type": "U",
        "meta_norad_cat_id": 34010,
        "meta_element_set_no": 999,
        "meta_rev_at_epoch": 89123,
        "meta_bstar": 0.0045816,
        "meta_mean_motion_dot": 0.00088778,
        "meta_mean_motion_ddot": 0,
        "tle_line1": "1 34010U 93036GV  25336.03500810  .00088778  00000+0  45816-2 0  9998",
        "tle_line2": "2 34010  73.9999 305.7039 0004472  49.4096 310.7487 15.15871117891232"
      },
      "geometry": {
        "type": "Point",
        "coordinates": [
          -34.88966121455146,
          50.15946251493141
        ]
      }
    },
    {
      "type": "Feature",
      "properties": {
        "norad_id": 34011,
        "name": "COSMOS 2251 DEB",
        "group": "cosmos-2251-debris",
        "lat": 53.18382337780913,
        "lon": 146.8655177068861,
        "alt_km": 730.4601500873305,
        "timestamp": "2025-12-02T08:59:33.108136+00:00",
        "meta_object_name": "COSMOS 2251 DEB",
        "meta_object_id": "1993-036GW",
        "meta_epoch": "2025-12-02T01:45:47.237760",
        "meta_mean_motion": 14.41686366,
        "meta_eccentricity": 0.0035164,
        "meta_inclination": 74.0146,
        "meta_ra_of_asc_node": 349.941,
        "meta_arg_of_pericenter": 77.0821,
        "meta_mean_anomaly": 283.4258,
        "meta_ephemeris_type": 0,
        "meta_classification_type": "U",
        "meta_norad_cat_id": 34011,
        "meta_element_set_no": 999,
        "meta_rev_at_epoch": 87762,
        "meta_bstar": 0.00083845,
        "meta_mean_motion_dot": 2.728e-05,
        "meta_mean_motion_ddot": 0,
        "tle_line1": "1 34011U 93036GW  25336.07346340  .00002728  00000+0  83845-3 0  9995",
        "tle_line2": "2 34011  74.0146 349.9410 0035164  77.0821 283.4258 14.41686366877624"
      },
      "geometry": {
        "type": "Point",
        "coordinates": [
          146.8655177068861,
          53.18382337780913
        ]
      }
    },
    {
      "type": "Feature",
      "properties": {
        "norad_id": 34014,
        "name": "COSMOS 2251 DEB",
        "group": "cosmos-2251-debris",
        "lat": -25.85529287989341,
        "lon": -67.04224042987383,
        "alt_km": 666.0219292781949,
        "timestamp": "2025-12-02T08:59:33.108147+00:00",
        "meta_object_name": "COSMOS 2251 DEB",
        "meta_object_id": "1993-036GZ",
        "meta_epoch": "2025-12-02T01:19:10.450848",
        "meta_mean_motion": 14.72910836,
        "meta_eccentricity": 0.0036696,
        "meta_inclination": 74.0164,
        "meta_ra_of_asc_node": 301.5653,
        "meta_arg_of_pericenter": 84.2678,
        "meta_mean_anomaly": 354.7205,
        "meta_ephemeris_type": 0,
        "meta_classification_type": "U",
        "meta_norad_cat_id": 34014,
        "meta_element_set_no": 999,
        "meta_rev_at_epoch": 89146,
        "meta_bstar": 0.0011915,
        "meta_mean_motion_dot": 7.696e-05,
        "meta_mean_motion_ddot": 0,
        "tle_line1": "1 34014U 93036GZ  25336.05498207  .00007696  00000+0  11915-2 0  9993",
        "tle_line2": "2 34014  74.0164 301.5653 0036696  84.2678 354.7205 14.72910836891469"
      },
      "geometry": {
        "type": "Point",
        "coordinates": [
          -67.04224042987383,
          -25.85529287989341
        ]
      }
    },
    {
      "type": "Feature",
      "properties": {
        "norad_id": 34015,
        "name": "COSMOS 2251 DEB",
        "group": "cosmos-2251-debris",
        "lat": -28.802753088950794,
        "lon": 8.2838667841585,
        "alt_km": 692.559034255587,
        "timestamp": "2025-12-02T08:59:33.108157+00:00",
        "meta_object_name": "COSMOS 2251 DEB",
        "meta_object_id": "1993-036HA",
        "meta_epoch": "2025-12-02T00:21:16.430400",
        "meta_mean_motion": 14.60038239,
        "meta_eccentricity": 0.0021298,
        "meta_inclination": 74.0237,
        "meta_ra_of_asc_node": 179.9082,
        "meta_arg_of_pericenter": 277.3814,
        "meta_mean_anomaly": 201.8247,
        "meta_ephemeris_type": 0,
        "meta_classification_type": "U",
        "meta_norad_cat_id": 34015,
        "meta_element_set_no": 999,
        "meta_rev_at_epoch": 88374,
        "meta_bstar": 0.0012198,
        "meta_mean_motion_dot": 5.852e-05,
        "meta_mean_motion_ddot": 0,
        "tle_line1": "1 34015U 93036HA  25336.01477350  .00005852  00000+0  12198-2 0  9992",
        "tle_line2": "2 34015  74.0237 179.9082 0021298 277.3814 201.8247 14.60038239883748"
      },
      "geometry": {
        "type": "Point",
        "coordinates": [
          8.2838667841585,
          -28.802753088950794
        ]
      }
    },
    {
      "type": "Feature",
      "properties": {
        "norad_id": 34018,
        "name": "COSMOS 2251 DEB",
        "group": "cosmos-2251-debris",
        "lat": 54.0969426716009,
        "lon": 133.2097663628719,
        "alt_km": 949.4173166165647,
        "timestamp": "2025-12-02T08:59:33.108167+00:00",
        "meta_object_name": "COSMOS 2251 DEB",
        "meta_object_id": "1993-036HD",
        "meta_epoch": "2025-12-02T02:18:20.356416",
        "meta_mean_motion": 13.81044176,
        "meta_eccentricity": 0.0264386,
        "meta_inclination": 73.8766,
        "meta_ra_of_asc_node": 110.132,
        "meta_arg_of_pericenter": 148.0163,
        "meta_mean_anomaly": 327.8424,
        "meta_ephemeris_type": 0,
        "meta_classification_type": "U",
        "meta_norad_cat_id": 34018,
        "meta_element_set_no": 999,
        "meta_rev_at_epoch": 84510,
        "meta_bstar": 0.00071578,
        "meta_mean_motion_dot": 9.63e-06,
        "meta_mean_motion_ddot": 0,
        "tle_line1": "1 34018U 93036HD  25336.09606894  .00000963  00000+0  71578-3 0  9996",
        "tle_line2": "2 34018  73.8766 110.1320 0264386 148.0163 327.8424 13.81044176845108"
      },
      "geometry": {
        "type": "Point",
        "coordinates": [
          133.2097663628719,
          54.0969426716009
        ]
      }
    },
    {
      "type": "Feature",
      "properties": {
        "norad_id": 34019,
        "name": "COSMOS 2251 DEB",
        "group": "cosmos-2251-debris",
        "lat": 15.850525889570442,
        "lon": 74.48745147402067,
        "alt_km": 804.2559792990814,
        "timestamp": "2025-12-02T08:59:33.108177+00:00",
        "meta_object_name": "COSMOS 2251 DEB",
        "meta_object_id": "1993-036HE",
        "meta_epoch": "2025-12-01T15:01:15.071232",
        "meta_mean_motion": 14.33841757,
        "meta_eccentricity": 0.00626765,
        "meta_inclination": 73.9546,
        "meta_ra_of_asc_node": 71.1768,
        "meta_arg_of_pericenter": 253.964,
        "meta_mean_anomaly": 218.3144,
        "meta_ephemeris_type": 0,
        "meta_classification_type": "U",
        "meta_norad_cat_id": 34019,
        "meta_element_set_no": 999,
        "meta_rev_at_epoch": 87361,
        "meta_bstar": 0.0010320377,
        "meta_mean_motion_dot": 2.91e-05,
        "meta_mean_motion_ddot": 0,
        "tle_line1": "1 34019U 93036HE  25335.62586888  .00002910  00000+0  10320-2 0  9996",
        "tle_line2": "2 34019  73.9546  71.1768 0062676 253.9640 218.3144 14.33841757873610"
      },
      "geometry": {
        "type": "Point",
        "coordinates": [
          74.48745147402067,
          15.850525889570442
        ]
      }
    },
    {
      "type": "Feature",
      "properties": {
        "norad_id": 34021,
        "name": "COSMOS 2251 DEB",
        "group": "cosmos-2251-debris",
        "lat": -54.58030903729268,
        "lon": -6.973357760097042,
        "alt_km": 724.5422425636207,
        "timestamp": "2025-12-02T08:59:33.108188+00:00",
        "meta_object_name": "COSMOS 2251 DEB",
        "meta_object_id": "1993-036HG",
        "meta_epoch": "2025-12-01T22:39:58.637952",
        "meta_mean_motion": 14.49882781,
        "meta_eccentricity": 0.0020668,
        "meta_inclination": 74.0342,
        "meta_ra_of_asc_node": 150.0964,
        "meta_arg_of_pericenter": 295.1708,
        "meta_mean_anomaly": 218.0556,
        "meta_ephemeris_type": 0,
        "meta_classification_type": "U",
        "meta_norad_cat_id": 34021,
        "meta_element_set_no": 999,
        "meta_rev_at_epoch": 88473,
        "meta_bstar": 0.00049293,
        "meta_mean_motion_dot": 1.882e-05,
        "meta_mean_motion_ddot": 0,
        "tle_line1": "1 34021U 93036HG  25335.94442868  .00001882  00000+0  49293-3 0  9992",
        "tle_line2": "2 34021  74.0342 150.0964 0020668 295.1708 218.0556 14.49882781884730"
      },
      "geometry": {
        "type": "Point",
        "coordinates": [
          -6.973357760097042,
          -54.58030903729268
        ]
      }
    }
  ]
}